[{"OBJECT_NAME":"ION SCV-004","OBJECT_ID":"2022-002K","EPOCH":"2026-03-09T16:32:03.244416","MEAN_MOTION":15.29369331,"ECCENTRICITY":0.00072157,"INCLINATION":97.2961,"RA_OF_ASC_NODE":128.2294,"ARG_OF_PERICENTER":1.6783,"MEAN_ANOMALY":358.448,"EPHEMERIS_TYPE":0,"CLASSIFICATION_TYPE":"U","NORAD_CAT_ID":50993,"ELEMENT_SET_NO":999,"REV_AT_EPOCH":23008,"BSTAR":0.00023198467,"MEAN_MOTION_DOT":6.538e-5,"MEAN_MOTION_DDOT":0},{"OBJECT_NAME":"STARLINK-36504","OBJECT_ID":"2026-008T","EPOCH":"2026-03-09T10:24:56.797344","MEAN_MOTION":15.27598745,"ECCENTRICITY":0.00029014,"INCLINATION":43.0004,"RA_OF_ASC_NODE":206.6155,"ARG_OF_PERICENTER":297.7687,"MEAN_ANOMALY":62.287,"EPHEMERIS_TYPE":0,"CLASSIFICATION_TYPE":"U","NORAD_CAT_ID":67462,"ELEMENT_SET_NO":999,"REV_AT_EPOCH":953,"BSTAR":0.001170081,"MEAN_MOTION_DOT":0.00032097,"MEAN_MOTION_DDOT":0}]
