ION SCV-004             
1 50993U 22002K   26068.68892644  .00006538  00000+0  23198-3 0  9998
2 50993  97.2961 128.2294 0007216   1.6783 358.4480 15.29369331230088
STARLINK-36504          
1 67462U 26008T   26068.43399071  .00032097  00000+0  11701-2 0  9991
2 67462  43.0004 206.6155 0002901 297.7687  62.2870 15.27598745  9536
